KUIPER-00270            
1 67791U 26030AD  26056.20908627  .00024661  00000+0  74428-3 0  9990
2 67791  51.8822 279.4143 0009956  19.8424 340.2947 15.34089739  3174
KUIPER-00274            
1 67792U 26030AE  26056.22155432  .00022984  00000+0  73333-3 0  9991
2 67792  51.8839 279.4970 0017132  33.1499 327.0556 15.32268987  3178
KUIPER-00275            
1 67793U 26030AF  26056.20695360  .00028952  00000+0  86415-3 0  9995
2 67793  51.8856 279.4059 0007932  18.1616 341.9652 15.34367183  3179
KUIPER-00276            
1 67794U 26030AG  26056.15913025  .00016340  00000+0  53631-3 0  9993
2 67794  51.8828 279.8273 0018216  28.8360 331.3628 15.31580964  3168
KUIPER-00279            
1 67795U 26030AH  26056.20356450  .00025691  00000+0  75829-3 0  9995
2 67795  51.8810 279.3778 0006171  15.1076 345.0093 15.34796268  3173
CREW DRAGON 12          
1 67796U 26031A   26056.18628621  .00010179  00000+0  19739-3 0  9999
2 67796  51.6318 134.1640 0008356 131.0189 229.1523 15.48279367554364
STARLINK-36800          
1 67797U 26032A   26054.66670139 -.01862359  94321-3 -60359-2 0  9997
2 67797  97.2870 240.3960 0001284  80.0984 214.9156 15.90904989  2520
STARLINK-36798          
1 67798U 26032B   26054.66670139 -.01865731  94824-3 -59881-2 0  9991
2 67798  97.2865 240.3974 0001244  75.9154 222.8269 15.91097752  2466
STARLINK-36804          
1 67799U 26032C   26054.66670139 -.01853662  93869-3 -58889-2 0  9997
2 67799  97.2863 240.3994 0001357  75.3637 227.4376 15.91296785  2469
STARLINK-36354          
1 67800U 26032D   26054.66670139 -.01853319  93987-3 -58406-2 0  9995
2 67800  97.2866 240.4012 0001230  78.0847 227.8964 15.91455237  2523
STARLINK-36773          
1 67801U 26032E   26054.66670139 -.01845584  93410-3 -57675-2 0  9999
2 67801  97.2859 240.4020 0001305  74.0978 235.2493 15.91618581  2465
STARLINK-36739          
1 67802U 26032F   26054.66670139 -.01847603  93924-3 -56745-2 0  9991
2 67802  97.2856 240.4047 0001263  71.9201 244.1424 15.91958078  2528
